     2.11           N: GPS NAV DATA                         RINEX VERSION / TYPE
teqc  2018Dec12     gpsops              20220425 01:04:06UTCPGM / RUN BY / DATE
Linux 2.6.32-573.12.1.x86_64|x86_64|gcc -static|Linux 64|=+ COMMENT
CHPI                                    MARKER NAME         COMMENT
41609M003                               MARKER NUMBER       COMMENT
4164613.9484 -4162456.9866 -2445028.7316                    COMMENT
                                                            COMMENT
This data is provided as a public service by NASA/JPL.      COMMENT
No warranty is expressed or implied regarding suitability   COMMENT
for use.  For further information, contact:                 COMMENT
Dave Stowers, NASA/JPL m/s 238-600                          COMMENT
4800 Oak Grove Drive, Pasadena CA 91109 USA                 COMMENT
                                                            END OF HEADER
16 22  4 24 14  0  0.0-4.947870038450D-04-3.637978807092D-12 0.000000000000D+00
    8.000000000000D+01 1.875000000000D+01 4.704838832565D-09 1.323466456422D+00
    1.190230250359D-06 1.277253439184D-02 7.465481758118D-06 5.153634145737D+03
    5.040000000000D+04-1.266598701477D-07 1.104003106892D+00 2.123415470123D-07
    9.693582466447D-01 2.447812500000D+02 7.257161147949D-01-8.181055059496D-09
   -4.821629411647D-10 1.000000000000D+00 2.207000000000D+03 0.000000000000D+00
    2.000000000000D+00 0.000000000000D+00-1.024454832077D-08 8.000000000000D+01
    4.321800000000D+04 4.000000000000D+00
18 22  4 24 14  0  0.0 1.874319277704D-04-9.663381206337D-12 0.000000000000D+00
    1.270000000000D+02 4.112500000000D+01 4.144815505346D-09-1.503609817121D+00
    2.149492502213D-06 2.236470463686D-03 4.973262548447D-06 5.153608360291D+03
    5.040000000000D+04-6.891787052155D-08 3.128608980608D+00 0.000000000000D+00
    9.715975733845D-01 2.903750000000D+02 3.045804316558D+00-8.029977337931D-09
    1.425059359442D-10 1.000000000000D+00 2.207000000000D+03 0.000000000000D+00
    2.000000000000D+00 0.000000000000D+00-8.381903171539D-09 3.830000000000D+02
    4.321800000000D+04 4.000000000000D+00
 3 22  4 24 14  0  0.0-2.193083055317D-04-1.466560206609D-11 0.000000000000D+00
    1.900000000000D+01-9.096875000000D+01 4.196960534538D-09-2.928553416222D+00
   -4.617497324944D-06 4.059591679834D-03 4.844740033150D-06 5.153639802933D+03
    5.040000000000D+04-1.117587089539D-08-2.127334204877D+00 7.078051567078D-08
    9.732226266745D-01 2.928750000000D+02 9.472074301229D-01-8.013548082158D-09
   -3.571577341961D-12 1.000000000000D+00 2.207000000000D+03 0.000000000000D+00
    2.000000000000D+00 0.000000000000D+00 1.862645149231D-09 1.900000000000D+01
    4.321800000000D+04 4.000000000000D+00
 4 22  4 24 14  0  0.0-1.732190139592D-04 3.296918293927D-12 0.000000000000D+00
    1.900000000000D+01-6.087500000000D+01 4.359467303597D-09-8.363690936727D-02
   -3.023073077202D-06 1.796094002202D-03 1.095421612263D-05 5.153628299713D+03
    5.040000000000D+04 2.048909664154D-08-1.045577859989D+00 4.284083843231D-08
    9.611334139903D-01 1.673125000000D+02-2.971998614597D+00-7.884614140113D-09
    2.932264997750D-10 1.000000000000D+00 2.207000000000D+03 0.000000000000D+00
    2.000000000000D+00 0.000000000000D+00-4.190951585770D-09 5.310000000000D+02
    4.468800000000D+04 4.000000000000D+00
26 22  4 24 14  0  0.0 2.009491436183D-04 2.728484105319D-12 0.000000000000D+00
    4.400000000000D+01 1.568750000000D+01 5.411653988539D-09 2.223766667665D+00
    8.065253496170D-07 6.936718942598D-03 6.694346666336D-06 5.153732843399D+03
    5.040000000000D+04-1.918524503708D-07 9.595518210706D-01 5.960464477539D-08
    9.378410693249D-01 2.405625000000D+02 3.894806385176D-01-8.368562869948D-09
   -3.014411276615D-10 1.000000000000D+00 2.207000000000D+03 0.000000000000D+00
    2.000000000000D+00 0.000000000000D+00 6.984919309616D-09 4.400000000000D+01
    4.788600000000D+04 4.000000000000D+00
 9 22  4 24 14  0  0.0-3.415644168854D-04 2.614797267597D-12 0.000000000000D+00
    1.600000000000D+01-7.081250000000D+01 4.464471677451D-09 8.605966101832D-01
   -3.581866621971D-06 2.087826374918D-03 1.023150980473D-05 5.153584562302D+03
    5.040000000000D+04-2.607703208923D-08-1.099096909752D+00 0.000000000000D+00
    9.541318895259D-01 1.755312500000D+02 1.882673873267D+00-7.993190091308D-09
    2.642967233051D-10 1.000000000000D+00 2.207000000000D+03 0.000000000000D+00
    2.000000000000D+00 0.000000000000D+00 1.396983861923D-09 1.600000000000D+01
    5.017800000000D+04 4.000000000000D+00
21 22  4 24 16  0  0.0 1.606936566532D-04 2.273736754432D-13 0.000000000000D+00
    9.400000000000D+01 4.409375000000D+01 4.501258924073D-09 1.598979020809D+00
    2.099201083183D-06 2.435481350403D-02 3.844499588013D-06 5.153764060974D+03
    5.760000000000D+04 5.401670932770D-07 3.029044547727D+00 6.146728992462D-08
    9.602537803672D-01 2.924062500000D+02-9.606762872006D-01-8.018191132702D-09
   -8.536069847286D-11 1.000000000000D+00 2.207000000000D+03 0.000000000000D+00
    2.800000000000D+00 0.000000000000D+00-1.024454832077D-08 9.400000000000D+01
    5.041800000000D+04 4.000000000000D+00
 1 22  4 24 16  0  0.0 3.776946105063D-04-8.526512829121D-12 0.000000000000D+00
    1.100000000000D+01 4.137500000000D+01 4.026953453061D-09-7.593148958047D-01
    2.205371856689D-06 1.178812782746D-02 4.541128873825D-06 5.153666154861D+03
    5.760000000000D+04 1.080334186554D-07 3.121756961982D+00 1.769512891769D-07
    9.877967461565D-01 3.045000000000D+02 8.965858637029D-01-8.156411175836D-09
    6.107397254753D-11 1.000000000000D+00 2.207000000000D+03 0.000000000000D+00
    2.000000000000D+00 0.000000000000D+00 5.122274160385D-09 1.100000000000D+01
    5.041800000000D+04 4.000000000000D+00
31 22  4 24 16  0  0.0-1.748148351908D-04-1.591615728103D-12 0.000000000000D+00
    1.700000000000D+01 3.968750000000D+01 4.879131806853D-09-1.892329075536D+00
    1.676380634308D-06 1.042716391385D-02 7.759779691696D-06 5.153721405029D+03
    5.760000000000D+04 1.005828380585D-07-9.187789702606D-03-1.192092895508D-07
    9.554453398020D-01 2.248437500000D+02 3.877766212985D-01-8.099623096099D-09
    4.643050544549D-10 1.000000000000D+00 2.207000000000D+03 0.000000000000D+00
    2.000000000000D+00 0.000000000000D+00-1.350417733192D-08 1.700000000000D+01
    5.041800000000D+04 4.000000000000D+00
22 22  4 24 16  0  0.0 2.484968863428D-04 6.025402399246D-12 0.000000000000D+00
    6.000000000000D+01-5.000000000000D+01 4.339466470482D-09 1.294013577934D+00
   -2.602115273476D-06 1.328867871780D-02 1.054070889950D-05 5.153686622620D+03
    5.760000000000D+04-2.682209014893D-07-9.972751635535D-01-1.639127731323D-07
    9.612789699504D-01 1.768750000000D+02-1.857650633188D+00-8.035334703944D-09
    1.667926618696D-10 1.000000000000D+00 2.207000000000D+03 0.000000000000D+00
    2.000000000000D+00 0.000000000000D+00-9.778887033463D-09 6.000000000000D+01
    5.041800000000D+04 4.000000000000D+00
 4 22  4 24 16  0  0.0-1.731952652335D-04 3.296918293927D-12 0.000000000000D+00
    2.000000000000D+01-5.037500000000D+01 4.243748197718D-09 9.661487535965D-01
   -2.603977918625D-06 1.797310193069D-03 1.096166670322D-05 5.153630981445D+03
    5.760000000000D+04-6.519258022308D-08-1.045634052135D+00 1.229345798492D-07
    9.611356288483D-01 1.685000000000D+02-2.971577993465D+00-7.811396804603D-09
    2.339383158984D-10 1.000000000000D+00 2.207000000000D+03 0.000000000000D+00
    2.000000000000D+00 0.000000000000D+00-4.190951585770D-09 5.320000000000D+02
    5.041800000000D+04 4.000000000000D+00
 8 22  4 24 16  0  0.0-6.527919322252D-05-1.591615728103D-12 0.000000000000D+00
    9.600000000000D+01 4.603125000000D+01 4.464114519717D-09 1.436595494369D+00
    2.717599272728D-06 7.444689981639D-03 8.579343557358D-06 5.153752763748D+03
    5.760000000000D+04 5.960464477539D-08 2.040681783936D+00 1.043081283569D-07
    9.637851168558D-01 2.150625000000D+02 1.564306772456D-01-8.030334495665D-09
   -3.832302487924D-10 1.000000000000D+00 2.207000000000D+03 0.000000000000D+00
    2.000000000000D+00 0.000000000000D+00 5.122274160385D-09 9.600000000000D+01
    5.041800000000D+04 4.000000000000D+00
 3 22  4 24 16  0  0.0-2.194140106440D-04-1.466560206609D-11 0.000000000000D+00
    3.300000000000D+01-8.434375000000D+01 4.209103897501D-09-1.878422937615D+00
   -4.325062036514D-06 4.059201222844D-03 4.975125193596D-06 5.153639986038D+03
    5.760000000000D+04 4.470348358154D-08-2.127391315736D+00-6.519258022308D-08
    9.732221351341D-01 2.905000000000D+02 9.472752451534D-01-8.031763126602D-09
   -1.228622605635D-10 1.000000000000D+00 2.207000000000D+03 0.000000000000D+00
    2.000000000000D+00 0.000000000000D+00 1.862645149231D-09 3.300000000000D+01
    5.041800000000D+04 4.000000000000D+00
32 22  4 24 16  0  0.0-1.123766414821D-04-8.299139153678D-12 0.000000000000D+00
    6.800000000000D+01-5.887500000000D+01 4.315536902291D-09 2.099462758388D+00
   -2.937391400337D-06 5.921316682361D-03 1.007318496704D-05 5.153596101761D+03
    5.760000000000D+04-9.499490261078D-08-1.087653797764D+00-1.378357410431D-07
    9.579627350845D-01 1.819687500000D+02-2.295724862087D+00-7.890685821594D-09
    1.832219176426D-10 1.000000000000D+00 2.207000000000D+03 0.000000000000D+00
    2.000000000000D+00 0.000000000000D+00 4.656612873077D-10 6.800000000000D+01
    5.041800000000D+04 4.000000000000D+00
27 22  4 24 16  0  0.0 1.903572119772D-04 8.185452315956D-12 0.000000000000D+00
    6.900000000000D+01 4.181250000000D+01 4.244462513186D-09 1.453836610062D+00
    2.350658178329D-06 1.052264228929D-02 9.207054972649D-06 5.153657892227D+03
    5.760000000000D+04-1.564621925354D-07 2.060677701646D+00 1.639127731323D-07
    9.725220630018D-01 2.118750000000D+02 6.710943349385D-01-7.985332621156D-09
   -3.325138505366D-10 1.000000000000D+00 2.207000000000D+03 0.000000000000D+00
    2.800000000000D+00 0.000000000000D+00 1.396983861923D-09 6.900000000000D+01
    5.041800000000D+04 4.000000000000D+00
